Continent,Country,Region,Location,Site_name,Feature,Latitude,Longitude,Elevation_m.a.s.l.(min.)_or_depth_in_section_m,Dating_method,Material_dated__and_stratigraphic_position,Interpretation,Retreat_Advance,Reference,Map_ID,Sample_ID,Measured_age_(14C_yr_BP_or_normal_dist_not_for_calibration_for_non_C14_age),±_1s,calCurves,DR,DR_err,δ13C_(‰),Oxcal_v4.4_SHCal20_(a_cal_BP)_(Marine_data_DR_=_666±76)_Whole_range_dataset_,from,to,%,from,to,%,μ,σ,m,Oxcal_v4.4_SHCal13_(a_cal_BP)_(Marine_data_DR_=_791±121),from,to,%,from,to,%,μ,σ,m,Notes
Antarctica,South Shetland Islands,King George Island ,Barton Peninsula,Barton Peninsula,BP_Moraine,-62.228,-58.786,20,14C,Peat layer  buried ~1m in ice-cored moraine,Maximum age of late Holocene glacial readvance,Advance,Oliva et l (2019),51,060129-2,2180,70,shcal20,,,, R_Date 060129-2,2300,2010,68.3,2333,1934,95.4,2136,105,2118, R_Date 060129-2,2150,2099,68.3,2296,2087,95.4,2138,52,2123,
Antarctica,South Shetland Islands,King George Island ,Barton Peninsula,Barton Peninsula,BP_Moraine,-62.228,-58.786,20,14C,Terrestrial moss buried 3m in ice-cored moraine,Minimum age of late Holocene glacial readvance,Advance,Oliva et l (2019),51,060129-3,1530,70,shcal20,,,, R_Date 060129-3,1451,1305,68.3,1533,1285,95.4,1393,70,1385, R_Date 060129-3,1376,1351,68.3,1404,1321,95.4,1363,16,1364,
Antarctica,South Shetland Islands,King George Island ,Barton Peninsula,Lake 5,BP_Lake5_FWa,,,50,14C,Bulk freshwater sediment ,Constraint on ice advance of >50 m,Advance,Oliva et l (2019),14,CNA2534-2-1,1490,35,shcal20,,,,R_Date CNA2534-2-1,1360,1300,68.3,1410,1290,95.4,1340,30,1340,,,,,,,,,,,
Antarctica,South Shetland Islands,King George Island ,Barton Peninsula,Lake 5,BP_Lake5_FWb,,,50,14C,Bulk freshwater sediment ,Constraint on ice advance of >50 m,Advance,Oliva et l (2019),14,Beta-335038,2830,30,shcal20,,,,R_Date Beta-335038,2960,2850,68.3,3000,2780,95.4,2890,50,2900,,,,,,,,,,,
Antarctica,South Shetland Islands,King George Island ,Barton Peninsula,Lake 6,BP_Lake6_FW,,,50,14C,Bulk freshwater sediment ,Constraint on ice advance of >50 m,Advance,Oliva et l (2019),14,Beta-335036,7150,30,shcal20,,,,R_Date Beta-335036,7980,7870,68.3,8020,7840,95.4,7930,40,7940,,,,,,,,,,,
Antarctica,South Shetland Islands,King George Island ,Barton Peninsula,Lake 11,BP_Lake11_FW,,,50,14C,Bulk freshwater sediment ,Constraint on ice advance of >50 m,Advance,Oliva et l (2019),14,CNA2438-2-1,3495,35,shcal20,,,,R_Date CNA2438-2-1,3830,3640,68.3,3850,3590,95.4,3730,60,3730,,,,,,,,,,,
Antarctica,South Shetland Islands,King George Island ,Barton Peninsula,Lake 13,BP_Lake13_FW,-62.2241,-58.7597,103,14C,Bulk freshwater sediment (21 cm),Constraint on ice advance of >200 m,Advance,Oliva et al 2016b ,14,CNA2439-2-1,4165,35,shcal20,,,, R_Date CNA2439-2-1,4813,4573,68.3,4824,4526,95.4,4672,90,4671, R_Date CNA2439-2-1,4803,4578,68.3,4813,4530,95.4,4670,82,4649,
Antarctica,South Shetland Islands,King George Island ,Barton Peninsula,Lake 12,BP_Lake12_FW,-62.224,-58.7637,102,14C,Moss (34 cm),Constraint on ice advance of >200 m,Advance,Oliva et al 2016b ,14,Beta-335037,2450,30,shcal20,,,, R_Date Beta-335037,2662,2355,68.3,2699,2346,95.4,2481,104,2450, R_Date Beta-335037,2457,2359,68.3,2677,2352,95.4,2433,73,2418,
Antarctica,South Shetland Islands,King George Island ,Fildes Peninsula,Valle Norte Moraines,VN1_Inner 1,-62.1725,-58.9206,50,14C,Terrestrial moss in moraine,Maximum readvance age - reworked into moraine  ,Advance,Hall 2007,46,AA-468016,3264,94,shcal20,,,,R_Date AA-468016,3570,3355,68.3,3692,3213,95.4,3453,119,3449,R_Date AA-468016,3572,3356,68.3,3690,3211,95.4,3449,117,3450,
Antarctica,South Shetland Islands,King George Island ,Fildes Peninsula,Valle Norte Moraines,VN2_Inner 4,-62.1723,-58.9178,50,14C,Terrestrial moss in moraine,Maximum readvance age - reworked into moraine  ,Advance,Hall 2007,46,AA-468037,3195,76,shcal20,,,,R_Date AA-468037,3454,3250,68.3,3565,3167,95.4,3359,97,3367,R_Date AA-468037,3455,3250,68.3,3562,3175,95.4,3361,99,3368,
Antarctica,South Shetland Islands,King George Island ,Fildes Peninsula,Valle Norte Moraines,VN3_Outer 5,-62.1739,-58.9203,50,14C,Terrestrial moss in moraine,Maximum age for crosscut moraine readvance,Advance,Hall 2007,46,AA-442798,2870,42,shcal20,,,,R_Date AA-442798,3001,2866,68.3,3136,2788,95.4,2948,72,2943,R_Date AA-442798,2993,2867,68.3,3070,2795,95.4,2939,67,2934,
Antarctica,South Shetland Islands,King George Island ,Fildes Peninsula,Valle Norte Moraines,VN4_Inner 1,-62.1725,-58.9206,50,14C,Terrestrial moss in moraine,Maximum readvance age - reworked into moraine  ,Advance,Hall 2007,46,AA-442789,2799,42,shcal20,,,,R_Date AA-442789,2924,2782,68.3,2963,2759,95.4,2862,59,2858,R_Date AA-442789,2919,2784,68.3,2956,2762,95.4,2855,54,2851,
Antarctica,South Shetland Islands,King George Island ,Fildes Peninsula,Valle Norte Moraines,VN5_Inner 3,-62.1724,-58.9186,50,14C,Terrestrial moss in moraine,Maximum readvance age - reworked into moraine  ,Advance,Hall 2007,46,AA-4680510,2715,35,shcal20,,,,R_Date AA-4680510,2846,2751,68.3,2863,2740,95.4,2797,37,2789,R_Date AA-4680510,2841,2749,68.3,2854,2744,95.4,2792,33,2783,
Antarctica,South Shetland Islands,King George Island ,Fildes Peninsula,Valle Norte Moraines,VN6_Inner 2,-62.1723,-58.919,50,14C,Terrestrial moss in moraine,Maximum readvance age - reworked into moraine  ,Advance,Hall 2007,46,AA-4680011,2609,35,shcal20,,,,R_Date AA-4680011,2756,2541,68.3,2765,2493,95.4,2659,87,2707,R_Date AA-4680011,2754,2540,68.3,2764,2492,95.4,2656,87,2704,
Antarctica,South Shetland Islands,King George Island ,Fildes Peninsula,Valle Norte Moraines,VN7_Inner 1,-62.1719,-58.9163,50,14C,Terrestrial moss in moraine,Maximum readvance age - reworked into moraine  ,Advance,Hall 2007,46,AA-4427712,2500,41,shcal20,,,,R_Date AA-4427712,2702,2430,68.3,2711,2364,95.4,2546,103,2547,R_Date AA-4427712,2700,2433,68.3,2711,2362,95.4,2545,104,2544,
Antarctica,South Shetland Islands,King George Island ,Fildes Peninsula,Valle Norte Moraines,VN8_Inner 2,-62.1727,-58.919,50,14C,Terrestrial moss in moraine,Maximum readvance age - reworked into moraine  ,Advance,Hall 2007,46,AA-4680413,2159,44,shcal20,,,,R_Date AA-4680413,2133,2015,68.3,2305,1936,95.4,2103,83,2087,R_Date AA-4680413,2152,2017,68.3,2305,2000,95.4,2116,81,2103,
Antarctica,South Shetland Islands,King George Island ,Fildes Peninsula,Valle Norte Moraines,VN9_Inner 5,-62.1724,-58.9169,50,14C,Terrestrial moss in moraine,Maximum readvance age - reworked into moraine  ,Advance,Hall 2007,46,AA-4680714,2151,52,shcal20,,,,R_Date AA-4680714,2131,2011,68.3,2307,1930,95.4,2095,89,2080,R_Date AA-4680714,2152,2012,68.3,2305,1934,95.4,2108,87,2095,
Antarctica,South Shetland Islands,King George Island ,Fildes Peninsula,Valle Norte Moraines,VN10_Inner 2,-62.1727,-58.919,50,14C,Terrestrial moss in moraine,Maximum readvance age - reworked into moraine  ,Advance,Hall 2007,46,AA-4428015,2136,47,shcal20,,,,R_Date AA-4428015,2111,2005,68.3,2299,1929,95.4,2073,78,2064,R_Date AA-4428015,2147,2008,68.3,2301,1931,95.4,2085,79,2075,
Antarctica,South Shetland Islands,King George Island ,Fildes Peninsula,Valle Norte Moraines,VN11_Inner 5,-62.1729,-58.9168,50,14C,Terrestrial moss in moraine,Maximum readvance age - reworked into moraine  ,Advance,Hall 2007,46,AA-4680816,2037,44,shcal20,,,,R_Date AA-4680816,2001,1894,68.3,2055,1834,95.4,1949,53,1951,R_Date AA-4680816,2003,1906,68.3,2055,1836,95.4,1952,52,1954,
Antarctica,South Shetland Islands,King George Island ,Fildes Peninsula,Valle Norte Moraines,VN12_Inner 6,-62.1722,-58.9163,50,14C,Terrestrial moss in moraine,Maximum readvance age - reworked into moraine  ,Advance,Hall 2007,46,AA-4356817,1258,37,shcal20,,,,R_Date AA-4356817,1168,1070,68.3,1264,996,95.4,1131,59,1126,R_Date AA-4356817,1177,1074,68.3,1268,998,95.4,1134,57,1131,
Antarctica,South Shetland Islands,King George Island ,Fildes Peninsula,Valle Norte Moraines,VN13_Outer 4,-62.1757,-58.9135,50,14C,Terrestrial moss in moraine,Maximum readvance age - reworked into moraine  ,Advance,Hall 2007,46,AA-4356518,894,41,shcal20,,,,R_Date AA-4356518,795,690,68.3,903,675,95.4,764,52,757,R_Date AA-4356518,796,722,68.3,904,676,95.4,764,50,757,
Antarctica,South Shetland Islands,King George Island ,Fildes Peninsula,Valle Norte Moraines,VN14_Outer 2,-62.1729,-58.9202,50,14C,Terrestrial moss in moraine,Maximum readvance age - reworked into moraine  ,Advance,Hall 2007,46,AA-4679819,855,32,shcal20,,,,R_Date AA-4679819,738,680,68.3,787,672,95.4,720,30,718,R_Date AA-4679819,739,684,68.3,772,674,95.4,721,28,720,
Antarctica,South Shetland Islands,King George Island ,Fildes Peninsula,Valle Norte Moraines,VN15_Outer 3,-62.1736,-58.918,50,14C,Terrestrial moss in moraine,Maximum readvance age - reworked into moraine  ,Advance,Hall 2007,46,AA-4680920,713,37,shcal20,,,,R_Date AA-4680920,662,566,68.3,673,557,95.4,615,36,616,R_Date AA-4680920,662,568,68.3,673,559,95.4,616,36,618,
Antarctica,South Shetland Islands,King George Island ,Fildes Peninsula,Valle Norte Moraines,VN16_Outer 2,-62.1729,-58.9202,50,14C,Terrestrial moss in moraine,Maximum age for younger set of moraines,Advance,Hall 2007,46,AA-4680221,677,45,shcal20,,,,R_Date AA-4680221,653,558,68.3,664,549,95.4,606,34,605,R_Date AA-4680221,650,560,68.3,665,550,95.4,606,33,605,
Antarctica,South Shetland Islands,King George Island ,Fildes Peninsula,Valle Norte Moraines,VN17_Outer 1,-62.1724,-58.9215,50,14C,Terrestrial moss in moraine,Moss on moraine surface; minimum age,Advance,Hall 2007,46,AA-4427622,264,37,shcal20,,,,R_Date AA-4427622,309,152,68.3,440,141,95.4,244,78,222,R_Date AA-4427622,310,153,68.3,440,145,95.4,248,77,272,
Antarctica,South Shetland Islands,King George Island ,Fildes Peninsula,Valle Klotz Moraine,VK Moraine 1,-62.18,-58.9,30,14C,Terrestrial moss in moraine,Maximum readvance age - reworked into moraine  ,Advance,Hall 2007,46,AA-46810,1948,40,shcal20,,,,R_Date AA-46810,1921,1750,68.3,1990,1738,95.4,1846,58,1850,R_Date AA-46810,1905,1753,68.3,1988,1737,95.4,1848,56,1852,
Antarctica,South Shetland Islands,King George Island ,Fildes Peninsula,Valle Klotz Moraine,VK Moraine 2,-62.18,-58.9,30,14C,Terrestrial moss in moraine,Maximum readvance age - reworked into moraine  ,Advance,Hall 2007,46,AA-43571,1453,38,shcal20,,,,R_Date AA-43571,1350,1288,68.3,1374,1183,95.4,1315,35,1313,R_Date AA-43571,1350,1291,68.3,1375,1271,95.4,1318,29,1314,
Antarctica,South Shetland Islands,King George Island ,Fildes Peninsula,Valle Klotz Moraine,VK Moraine 3,-62.18,-58.9,30,14C,Terrestrial moss in moraine,Maximum readvance age - reworked into moraine  ,Advance,Hall 2007,46,AA-46811,1403,41,shcal20,,,,R_Date AA-46811,1306,1183,68.3,1347,1177,95.4,1260,47,1277,R_Date AA-46811,1309,1191,68.3,1346,1183,95.4,1268,43,1281,
Antarctica,South Shetland Islands,King George Island ,Fildes Peninsula,Valle Klotz Moraine,VK Moraine 4,-62.18,-58.9,30,14C,Terrestrial moss in moraine,Maximum readvance age - reworked into moraine  ,Advance,Hall 2007,46,AA-44275,1338,42,shcal20,,,,R_Date AA-44275,1274,1179,68.3,1298,1088,95.4,1213,52,1220,R_Date AA-44275,1271,1185,68.3,1299,1093,95.4,1214,51,1221,
Antarctica,South Shetland Islands,King George Island ,Fildes Peninsula,Valle Klotz Moraine,VK Moraine 5,-62.18,-58.9,30,14C,Terrestrial moss in moraine,Maximum age for outer moraines,Advance,Hall 2007,46,AA-43570,1116,48,shcal20,,,,R_Date AA-43570,1052,929,68.3,1176,819,95.4,986,56,979,R_Date AA-43570,1051,930,68.3,1073,821,95.4,985,53,979,
Antarctica,South Shetland Islands,King George Island ,Fildes Peninsula,Valle Norte Moraines,VN_Marine 1,-62.1726,-58.918,50,14C,Marine shells in moraine,In thrust-up marine sediments ,Advance,Hall 2007,46,AA-435641,47600,4760,marine20666,666,76,,R_Date AA-435641,54870,48050,68.3,...,45410,95.4,50200,2830,50290,R_Date AA-435641,,46170,68.3,,48440,95.4,,,,Not included in density analysis - outside of Marine20666 range of 936-51121
Antarctica,South Shetland Islands,King George Island ,Fildes Peninsula,Valle Norte Moraines,VN_Marine 2,-62.1729,-58.9169,50,14C,Marine shells in moraine,In thrust-up marine sediments ,Advance,Hall 2007,46,AA-435692,44900,4490,marine20666,666,76,,R_Date AA-435692,52150,44800,68.3,...,43470,95.4,48980,3250,48830,R_Date AA-435692,49780,45200,68.3,,42870,95.4,46520,2100,46640,Not included BChron in density analysis - creates data artefacts
Antarctica,South Shetland Islands,King George Island ,Fildes Peninsula,Valle Norte Moraines,VN_ Marine 3,-62.1743,-58.9144,50,14C,Marine shells in moraine,In thrust-up marine sediments ,Advance,Hall 2007,46,AA-435633,39400,1300,marine20666,666,76,,R_Date AA-435633,44030,42340,68.3,45460,41830,95.4,43410,960,43260,R_Date AA-435633,43540,41390,68.3,45100,40360,95.4,42640,1170,42530,Not included BChron in density analysis - creates data artefacts
Antarctica,South Shetland Islands,King George Island ,Fildes Peninsula,Valle Norte Moraines,VN_Marine 3,-62.1743,-58.9144,50,14C,Marine shells in moraine,In thrust-up marine sediments ,Advance,Hall 2007,46,AA-435624,35640,760,marine20666,666,76,,R_Date AA-435624,41370,40000,68.3,41980,39470,95.4,40710,660,40730,R_Date AA-435624,40010,38170,68.3,40850,36940,95.4,38990,940,39000,Not included BChron in density analysis - creates data artefacts
Antarctica,South Shetland Islands,King George Island ,Fildes Peninsula,Valle Norte Moraines,VN_Marine 4,-62.1751,-58.9145,50,14C,Marine shells in moraine,In thrust-up marine sediments ,Advance,Hall 2007,46,AA-435615,33230,570,marine20666,666,76,,R_Date AA-435615,38890,37180,68.3,39460,36500,95.4,38040,790,38020,R_Date AA-435615,36590,35220,68.3,37730,34770,95.4,36100,740,36010,Not included BChron in density analysis - creates data artefacts
Antarctica,South Shetland Islands,King George Island ,Fildes Peninsula,Artigas Beach Moraine,ART03 Moraine,-62.1795,-58.8995,72,14C,Terrestrial moss in moraine,Moss in glaciofluvial sed. over 3–6; max. readvance age,Advance,Heredia Barion et al. submitted a,ART03,Beta-441409,1380,30,shcal20,,,-22.7,R_Date Beta-441409,1294,1182,68.3,1305,1177,95.4,1242,42,1252,R_Date Beta-441409,1299,1190,68.3,1304,1185,95.4,1251,39,1270,
Antarctica,South Shetland Islands,King George Island ,Fildes Peninsula,Artigas Beach Moraine,ART03 Moraine,-62.1795,-58.8995,72,14C,Terrestrial moss in moraine,Moss in glaciofluvial sed. over 3–6; max. readvance age,Advance,Heredia Barion et al. submitted a,ART03,Beta-441410,1380,30,shcal20,,,-20.5,R_Date Beta-441410,1294,1182,68.3,1305,1177,95.4,1242,42,1252,R_Date Beta-441410,1299,1190,68.3,1304,1185,95.4,1251,39,1270,
Antarctica,South Shetland Islands,King George Island ,Fildes Peninsula,Artigas Beach Moraine,ART01 Moraine,-62.1795,-58.8995,72,14C,Terrestrial moss in moraine,Moss in glaciofluvial sediments; max. readvance age,Advance,Heredia Barion et al. submitted a,ART01,Beta-441405,1980,30,shcal20,,,-22.6,R_Date Beta-441405,1925,1835,68.3,1994,1755,95.4,1890,48,1888,R_Date Beta-441405,1925,1837,68.3,1995,1824,95.4,1891,44,1889,
Antarctica,South Shetland Islands,King George Island ,Fildes Peninsula,Artigas Beach Moraine,ART01 Moraine,-62.1795,-58.8995,72,14C,Terrestrial moss in moraine,Moss in glaciofluvial sediments; max. readvance age,Advance,Heredia Barion et al. submitted a,ART01,Beta-441406,1950,30,shcal20,,,-22.4,R_Date Beta-441406,1889,1755,68.3,1927,1747,95.4,1848,48,1853,R_Date Beta-441406,1895,1824,68.3,1927,1747,95.4,1852,44,1856,
Antarctica,South Shetland Islands,King George Island ,Fildes Peninsula,Artigas Beach Moraine,ART01 Moraine,-62.1795,-58.8995,72,14C,Terrestrial moss in moraine,Moss in glaciofluvial sediments; max. readvance age,Advance,Heredia Barion et al. submitted a,ART01,Beta-441407,1920,30,shcal20,,,-19.6,R_Date Beta-441407,1870,1748,68.3,1887,1733,95.4,1809,45,1812,R_Date Beta-441407,1873,1748,68.3,1890,1735,95.4,1813,45,1817,
Antarctica,South Shetland Islands,King George Island ,Fildes Peninsula,Artigas Beach Moraine,ART01 Moraine,-62.1795,-58.8995,72,14C,Terrestrial moss in moraine,Moss in glaciofluvial sediments; max. readvance age,Advance,Heredia Barion et al. submitted a,ART01,Beta-441408,1940,30,shcal20,,,-16.8,R_Date Beta-441408,1885,1753,68.3,1922,1745,95.4,1835,48,1842,R_Date Beta-441408,1888,1754,68.3,1918,1745,95.4,1839,46,1846,
Antarctica,South Shetland Islands,King George Island ,Fildes Peninsula,Artigas Beach Moraine,ART08 Moraine,-62.1818,-58.8622,16,14C,Terrestrial moss in moraine,Moss above till; max. glacial readvance age,Advance,Heredia Barion et al. submitted a,ART08,Beta-441411,2030,30,shcal20,,,-17.9,R_Date Beta-441411,1997,1894,68.3,2007,1877,95.4,1945,39,1949,R_Date Beta-441411,1998,1917,68.3,2009,1879,95.4,1948,37,1951,
Antarctica,South Shetland Islands,King George Island ,Fildes Peninsula,Artigas Beach Moraine,ART08 Moraine,-62.1818,-58.8622,16,14C,Terrestrial moss in moraine,Moss above till; max. glacial readvance age,Advance,Heredia Barion et al. submitted a,ART08,Beta-441412,2050,30,shcal20,,,-24.5,R_Date Beta-441412,2003,1927,68.3,2042,1886,95.4,1960,37,1959,R_Date Beta-441412,2002,1930,68.3,2041,1889,95.4,1963,35,1962,
Antarctica,South Shetland Islands,King George Island ,Fildes Peninsula,Artigas Beach Moraine,ART08 Moraine,-62.1818,-58.8622,16,14C,Terrestrial moss in moraine,Moss in till; max. glacial readvance age,Advance,Heredia Barion et al. submitted a,ART08,Beta-441413,1870,30,shcal20,,,-20.9,R_Date Beta-441413,1816,1722,68.3,1834,1637,95.4,1763,45,1768,R_Date Beta-441413,1815,1723,68.3,1836,1701,95.4,1767,42,1771,
Antarctica,South Shetland Islands,King George Island ,Fildes Peninsula,Artigas Beach Moraine,ART08 Moraine,-62.1818,-58.8622,16,14C,Terrestrial moss in moraine,Moss in till; max. glacial readvance age,Advance,Heredia Barion et al. submitted a,ART08,Beta-441414,1900,30,shcal20,,,-28.6,R_Date Beta-441414,1829,1745,68.3,1874,1710,95.4,1790,41,1789,R_Date Beta-441414,1829,1745,68.3,1875,1719,95.4,1792,41,1790,
Antarctica,South Shetland Islands,King George Island ,Fildes Peninsula,Artigas Beach Moraine,ART02 Moraine,-62.1822,-58.8895,7,14C,Terrestrial moss in moraine,"Moss in till, overlying 6-7 m amsl raised beach",Advance,Heredia Barion et al. submitted a,ART02,Beta-441415,2050,30,shcal20,,,-20.5,R_Date Beta-441415,2003,1927,68.3,2042,1886,95.4,1960,37,1959,R_Date Beta-441415,2002,1930,68.3,2041,1889,95.4,1963,35,1962,
Antarctica,South Shetland Islands,King George Island ,Fildes Peninsula,Artigas Beach Moraine,ART02 Moraine,-62.1822,-58.8895,7,14C,Terrestrial moss in moraine,"Moss in till, overlying 6-7 m amsl raised beach",Advance,Heredia Barion et al. submitted a,ART02,Beta-441417,2010,30,shcal20,,,-21.9,R_Date Beta-441417,1993,1885,68.3,2000,1837,95.4,1927,44,1923,R_Date Beta-441417,1994,1886,68.3,2001,1839,95.4,1929,42,1925,
Antarctica,South Shetland Islands,King George Island ,Fildes Peninsula,Artigas Beach Moraine,ART02 Moraine,-62.1822,-58.8895,7,14C,Terrestrial moss in moraine,"Moss in till, overlying 6-7 m amsl raised beach",Advance,Heredia Barion et al. submitted a,ART02,Beta-441418,1980,30,shcal20,,,-23.7,R_Date Beta-441418,1925,1835,68.3,1994,1755,95.4,1890,48,1888,R_Date Beta-441418,1925,1837,68.3,1995,1824,95.4,1891,44,1889,
Antarctica,South Shetland Islands,King George Island ,Fildes Peninsula,Artigas Beach Moraine,ART07 Moraine,-62.181,-58.861,18,14C,Laternula sp. bivalve shells in moraine,Shell in fine sediments; max. glacial readvance age,Advance,Heredia Barion et al. submitted a,ART07,ETH-69688,7045,85,marine20666,666,76,-0.9,R_Date ETH-69688,6790,6480,68.3,6940,6330,95.4,6640,150,6630,R_Date ETH-69688,6886,6528,68.3,7086,6374,95.4,6713,177,6710,
Antarctica,South Shetland Islands,King George Island ,Fildes Peninsula,Artigas Beach Moraine,ART07 Moraine,-62.181,-58.861,18,14C,Laternula sp. bivalve shells in moraine,Shell in fine sediments; max. glacial readvance age,Advance,Heredia Barion et al. submitted a,ART07,ETH-69689,6590,70,marine20666,666,76,4,R_Date ETH-69689,6270,6000,68.3,6400,5880,95.4,6140,130,6140,R_Date ETH-69689,6365,6048,68.3,6504,5894,95.4,6200,155,6205,
Antarctica,South Shetland Islands,King George Island ,Fildes Peninsula,Artigas Beach Moraine,ART07 Moraine,-62.181,-58.861,18,14C,Laternula sp. bivalve shells in moraine,Shell in fine sediments; max. glacial readvance age,Advance,Heredia Barion et al. submitted a,ART07,ETH-69690,6730,75,marine20666,666,76,0,R_Date ETH-69690,6440,6160,68.3,6570,6000,95.4,6290,140,6300,R_Date ETH-69690,6518,6207,68.3,6671,6016,95.4,6364,159,6363,
Antarctica,South Shetland Islands,King George Island ,Fildes Peninsula,Artigas Beach Moraine,ART09 Moraine,-62.1807,-58.8613,27,14C,Laternula sp. bivalve shells in moraine,Shell in till; max. glacial readvance age,Advance,Heredia Barion et al. submitted a,ART09,ETH-69691,6265,75,marine20666,666,76,-2.2,R_Date ETH-69691,5920,5640,68.3,6090,5530,95.4,5790,140,5790,R_Date ETH-69691,5996,5667,68.3,6185,5570,95.4,5858,161,5854,
Antarctica,South Shetland Islands,King George Island ,Fildes Peninsula,Artigas Beach Moraine,ART09 Moraine,-62.1807,-58.8613,27,14C,Laternula sp. bivalve shells in moraine,Shell in till; max. glacial readvance age,Advance,Heredia Barion et al. submitted a,ART09,ETH-69692,5895,70,marine20666,666,76,3.4,R_Date ETH-69692,5550,5280,68.3,5660,5080,95.4,5390,140,5400,R_Date ETH-69692,5596,5295,68.3,5754,5046,95.4,5440,166,5450,
Antarctica,South Shetland Islands,King George Island ,Fildes Peninsula,Artigas Beach Moraine,ART10 Moraine,-62.1803,-58.8597,28,14C,Laternula sp. bivalve shells in moraine,Shell in till; max. glacial readvance age,Advance,Heredia Barion et al. submitted a,ART10,ETH-69693,6235,70,marine20666,666,76,0.9,R_Date ETH-69693,5890,5620,68.3,6020,5480,95.4,5760,130,5760,R_Date ETH-69693,5959,5649,68.3,6170,5551,95.4,5825,156,5820,
Antarctica,South Shetland Islands,King George Island ,Fildes Peninsula,Artigas Beach Moraine,ART10 Moraine,-62.1803,-58.8597,28,14C,Laternula sp. bivalve shells in moraine,Shell in till; max. glacial readvance age,Advance,Heredia Barion et al. submitted a,ART10,ETH-69694,5925,70,marine20666,666,76,-1.2,R_Date ETH-69694,5560,5300,68.3,5700,5130,95.4,5420,130,5430,R_Date ETH-69694,5619,5313,68.3,5838,5131,95.4,5476,164,5483,
Antarctica,South Shetland Islands,King George Island ,Fildes Peninsula,Artigas Beach Moraine,ART10 Moraine,-62.1803,-58.8597,28,14C,Laternula sp. bivalve shells in moraine,Shell in till; max. glacial readvance age,Advance,Heredia Barion et al. submitted a,ART10,ETH-69695,6520,75,marine20666,666,76,-2.8,R_Date ETH-69695,6200,5930,68.3,6330,5780,95.4,6070,130,6070,R_Date ETH-69695,6280,5975,68.3,6444,5819,95.4,6125,154,6129,
Antarctica,South Shetland Islands,King George Island ,Fildes Peninsula,Valle Norte Moraines,VN1_Marine_inner,-62.1732,-58.9164,42,14C,Laternula sp. bivalve shells in moraine,Reworked shells  from previous max. glacial readvance age: shell in fine silty/sand thrust-up marine sediments,Advance,Heredia Barion et al. submitted a,46,ETH-69684,44300,4430,marine20666,666,76,-1.4,R_Date ETH-69684,45510,45040,68.3,45730,44830,95.4,45280,230,45280,R_Date ETH-69684,49429,44570,68.3,,42527,95.4,46277,2202,46366,Not included BChron in density analysis - creates data artefacts
Antarctica,South Shetland Islands,King George Island ,Fildes Peninsula,Valle Norte Moraines,VN2_Marine_inner,-62.1732,-58.9164,42,14C,Laternula sp. bivalve shells in moraine,Reworked shells  from previous max. glacial readvance age: shell in fine silty/sand thrust-up marine sediments,Advance,Heredia Barion et al. submitted a,46,ETH-69685,43700,4370,marine20666,666,76,2.8,R_Date ETH-69685,44970,44580,68.3,45210,44430,95.4,44800,200,44790,R_Date ETH-69685,49030,43897,68.3,,42139,95.4,46021,2309,46080,Not included BChron in density analysis - creates data artefacts
Antarctica,South Shetland Islands,King George Island ,Fildes Peninsula,Valle Norte Moraines,VN3_Marine_inner,-62.1732,-58.9164,42,14C,Laternula sp. bivalve shells in moraine,Reworked shells  from previous max. glacial readvance age: shell in fine silty/sand thrust-up marine sediments,Advance,Heredia Barion et al. submitted a,46,ETH-69686,48500,4850,marine20666,666,76,2.8,R_Date ETH-69686,50090,49170,68.3,50800,48710,95.4,49720,560,49690,R_Date ETH-69686,,46941,68.3,,49233,95.4,,,,Not included in density analysis - outside of Marine20666 range of 936-51121
Antarctica,South Shetland Islands,King George Island ,Fildes Peninsula,Valle Norte Moraines,VN4_Marine_inner,-62.1732,-58.9164,42,14C,Laternula sp. bivalve shells in moraine,Reworked shells  from previous max. glacial readvance age: shell in fine silty/sand thrust-up marine sediments,Advance,Heredia Barion et al. submitted a,46,ETH-69687,51700,5170,marine20666,666,76,-,R_Date ETH-69687,51900,51490,68.3,52120,51300,95.4,51700,200,51700,R_Date ETH-69687,,48922,68.3,,49857,95.4,,,,Not included BChron in density analysis - creates data artefacts
Antarctica,South Shetland Islands,King George Island ,Potter Peninsula,"Potter Cove, North Potter Peninsula",PC_SJ_section,-62.2389,-58.6728,4,14C,Seaweed in raised marine sediments overlain by till (Bed C),Maximum age constraint on glacial readvance on the outer Potter Peninsula - overlain by till unit,Retreat,Sugden and John 1973 ,41,Birm-23,7683,86,marine20666,666,76,,R_Date Birm-23,7455,7202,68.3,7572,7055,95.4,7321,128,7326,R_Date Birm-23,7536,7268,68.3,7672,7104,95.4,7391,139,7397,
Antarctica,South Shetland Islands,King George Island ,Potter Peninsula,"Potter Cove, North Potter Peninsula",PC_SJ_section,-62.2389,-58.6728,3.5,14C,Laternula shells in raised marine sediments overlain by till (Beds A & B),Maximum age constraint on glacial readvance on the outer Potter Peninsula - overlain by till unit,Retreat,Sugden and John 1973 ,41,Birm-48a,9670,230,marine20666,666,76,,R_Date Birm-48a,9895,9241,68.3,10215,8954,95.4,9569,323,9559,R_Date Birm-48a,9941,9258,68.3,10252,8950,95.4,9604,335,9596,
Antarctica,South Shetland Islands,King George Island ,Potter Peninsula,"Potter Cove, North Potter Peninsula",PC_Pingfo-II_river section,-62.2389,-58.6729,1.5,14C,Bone (penguin),Maximum age constraint on glacial readvance on the outer Potter Peninsula - overlain by till unit,Retreat,Heredia Barion et al. submitted b,41,Beta-441402,7860,40,marine20666,666,76,−21.6,R_Date Beta-441402,7591,7397,68.3,7679,7281,95.4,7487,99,7489,R_Date Beta-441402,7659,7434,68.3,7800,7317,95.4,7557,117,7554,
Antarctica,South Shetland Islands,King George Island ,Potter Peninsula,"Potter Cove, North Potter Peninsula",PC_Pingfo-II_river section,-62.2389,-58.6729,1.55,14C,Bone (penguin),Maximum age constraint on glacial readvance on the outer Potter Peninsula - overlain by till unit,Retreat,Heredia Barion et al. submitted b,41,Beta-441403,7890,40,marine20666,666,76,−22.2,R_Date Beta-441403,7610,7419,68.3,7713,7310,95.4,7515,99,7515,R_Date Beta-441403,7686,7455,68.3,7837,7355,95.4,7585,118,7582,
Antarctica,South Shetland Islands,King George Island ,Potter Peninsula,"Potter Cove, North Potter Peninsula",PC_Pingfo-II_river section,-62.2389,-58.6729,1.6,14C,Laternula sp. bivalve shell,Maximum age constraint on glacial readvance on the outer Potter Peninsula - overlain by till unit,Retreat,Heredia Barion et al. submitted b,41,ETH-67269,8010,85,marine20666,666,76,−1.6,R_Date ETH-67269,7755,7501,68.3,7905,7400,95.4,7633,125,7631,R_Date ETH-67269,7835,7559,68.3,7961,7426,95.4,7699,138,7695,
Antarctica,South Shetland Islands,King George Island ,Potter Peninsula,"Potter Cove, North Potter Peninsula",PC_Pingfo-II_river section,-62.2389,-58.6729,1.7,14C,Laternula sp. bivalve shell,Maximum age constraint on glacial readvance on the outer Potter Peninsula - overlain by till unit,Retreat,Heredia Barion et al. submitted b,41,ETH-67267,7805,85,marine20666,666,76,0,R_Date ETH-67267,7561,7321,68.3,7674,7181,95.4,7437,122,7439,R_Date ETH-67267,7648,7384,68.3,7792,7238,95.4,7507,136,7507,
Antarctica,South Shetland Islands,King George Island ,Potter Peninsula,"Potter Cove, North Potter Peninsula",PC_Pingfo-II_river section,-62.2389,-58.6729,1.85,14C,Bone (penguin),Maximum age constraint on glacial readvance on the outer Potter Peninsula - overlain by till unit,Retreat,Heredia Barion et al. submitted b,41,Beta - 431964,7780,30,marine20666,666,76,−23.1,R_Date Beta - 431964,7512,7316,68.3,7606,7221,95.4,7414,97,7416,R_Date Beta - 431964,7600,7380,68.3,7702,7249,95.4,7482,112,7485,
Antarctica,South Shetland Islands,King George Island ,Potter Peninsula,"Potter Cove, North Potter Peninsula",PC_Pingfo-II_river section,-62.2389,-58.6729,2.05,14C,Laternula sp. bivalve shell,Maximum age constraint on glacial readvance on the outer Potter Peninsula - overlain by till unit,Retreat,Heredia Barion et al. submitted b,41,ETH-67270,8170,85,marine20666,666,76,−1.3,R_Date ETH-67270,7916,7661,68.3,8029,7521,95.4,7783,127,7782,R_Date ETH-67270,7972,7681,68.3,8145,7568,95.4,7843,146,7840,
Antarctica,South Shetland Islands,King George Island ,Potter Peninsula,"Potter Cove, North Potter Peninsula",PC_Pingfo-II_river section,-62.2389,-58.6729,2.1,14C,Laternula sp. bivalve shell,Maximum age constraint on glacial readvance on the outer Potter Peninsula - overlain by till unit,Retreat,Heredia Barion et al. submitted b,41,ETH-67272,8115,80,marine20666,666,76,−13.4,R_Date ETH-67272,7851,7603,68.3,7972,7488,95.4,7732,123,7731,R_Date ETH-67272,7927,7653,68.3,8079,7512,95.4,7791,139,7789,
Antarctica,South Shetland Islands,King George Island ,Potter Peninsula,"Potter Cove, North Potter Peninsula",PC_Pingfo-II_river section,-62.2389,-58.6729,2.56,14C,Laternula sp. bivalve shell,Maximum age constraint on glacial readvance on the outer Potter Peninsula - overlain by till unit,Retreat,Heredia Barion et al. submitted b,41,ETH-71994,7920,20,marine20666,666,76,2,R_Date ETH-71994,7634,7446,68.3,7735,7347,95.4,7542,94,7542,R_Date ETH-71994,7718,7486,68.3,7855,7399,95.4,7612,115,7609,
Antarctica,South Shetland Islands,King George Island ,Potter Peninsula,"Potter Cove, North Potter Peninsula",PC_Pingfo-II_river section,-62.2389,-58.6729,2.7,14C,Laternula sp. bivalve shell,Maximum age constraint on glacial readvance on the outer Potter Peninsula - overlain by till unit,Retreat,Heredia Barion et al. submitted b,41,ETH-67268,7705,80,marine20666,666,76,−13.6,R_Date ETH-67268,7474,7233,68.3,7583,7088,95.4,7343,123,7347,R_Date ETH-67268,7553,7293,68.3,7681,7142,95.4,7413,134,7417,
Antarctica,South Shetland Islands,King George Island ,Potter Peninsula,"Potter Cove, North Potter Peninsula",PC_Pingfo-II_river section,-62.2389,-58.6729,2.95,14C,Laternula sp. bivalve shell,Maximum age constraint on glacial readvance on the outer Potter Peninsula - overlain by till unit,Retreat,Heredia Barion et al. submitted b,41,ETH-67273,8005,85,marine20666,666,76,−4.4,R_Date ETH-67273,7750,7497,68.3,7897,7395,95.4,7628,125,7626,R_Date ETH-67273,7833,7555,68.3,7957,7424,95.4,7694,138,7691,
Antarctica,South Shetland Islands,King George Island ,Potter Peninsula,"Potter Cove, North Potter Peninsula",PC_Pingfo-II_river section,-62.2389,-58.6729,3.05,14C,Laternula sp. bivalve shell,Maximum age constraint on glacial readvance on the outer Potter Peninsula - overlain by till unit,Retreat,Heredia Barion et al. submitted b,41,ETH-67275,7950,70,marine20666,666,76,−12.1,R_Date ETH-67275,7680,7451,68.3,7813,7342,95.4,7574,115,7572,R_Date ETH-67275,7770,7505,68.3,7917,7406,95.4,7643,130,7639,
Antarctica,South Shetland Islands,King George Island ,Potter Peninsula,"Potter Cove, North Potter Peninsula",PC_Pingfo-II_river section,-62.2389,-58.6729,3.05,14C,Seaweed,Maximum age constraint on glacial readvance on the outer Potter Peninsula - overlain by till unit,Retreat,Heredia Barion et al. submitted b,41,ETH-67274,8020,90,marine20666,666,76,−2.3,R_Date ETH-67274,7768,7509,68.3,7915,7405,95.4,7643,128,7641,R_Date ETH-67274,7845,7562,68.3,7976,7426,95.4,7708,141,7705,
Antarctica,South Shetland Islands,King George Island ,Potter Peninsula,"Potter Cove, North Potter Peninsula",PC_Pingfo-II_river section,-62.2389,-58.6729,3.1,14C,Laternula sp. bivalve shell,Maximum age constraint on glacial readvance on the outer Potter Peninsula - overlain by till unit,Retreat,Heredia Barion et al. submitted b,41,ETH-67276,8145,70,marine20666,666,76,−10.5,R_Date ETH-67276,7877,7638,68.3,7992,7529,95.4,7759,117,7758,R_Date ETH-67276,7943,7674,68.3,8106,7559,95.4,7817,136,7816,
Antarctica,South Shetland Islands,King George Island ,Potter Peninsula,"Potter Cove, North Potter Peninsula",PC_Pingfo-II_river section,-62.2389,-58.6729,3.11,14C,Laternula sp. bivalve shell,Maximum age constraint on glacial readvance on the outer Potter Peninsula - overlain by till unit,Retreat,Heredia Barion et al. submitted b,41,ETH-72000,8015,20,marine20666,666,76,1.3,R_Date ETH-72000,7733,7535,68.3,7830,7436,95.4,7633,98,7632,R_Date ETH-72000,7812,7577,68.3,7929,7474,95.4,7700,116,7697,
Antarctica,South Shetland Islands,King George Island ,Potter Peninsula,"Potter Cove, North Potter Peninsula",PC_Pingfo-II_river section,-62.2389,-58.6729,3.3,14C,Laternula sp. bivalve shell,Maximum age constraint on glacial readvance on the outer Potter Peninsula - overlain by till unit,Retreat,Heredia Barion et al. submitted b,41,ETH-67277,8300,75,marine20666,666,76,−1,R_Date ETH-67277,8031,7773,68.3,8171,7661,95.4,7912,129,7911,R_Date ETH-67277,8133,7832,68.3,8274,7680,95.4,7973,148,7973,
Antarctica,South Shetland Islands,King George Island ,Potter Peninsula,"Potter Cove, North Potter Peninsula",PC_Pingfo-II_river section,-62.2389,-58.6729,3.41,14C,Laternula sp. bivalve shell,Maximum age constraint on glacial readvance on the outer Potter Peninsula - overlain by till unit,Retreat,Heredia Barion et al. submitted b,41,ETH-71996,8005,20,marine20666,666,76,2.9,R_Date ETH-71996,7715,7519,68.3,7819,7430,95.4,7624,98,7622,R_Date ETH-71996,7802,7569,68.3,7923,7468,95.4,7691,116,7688,
Antarctica,South Shetland Islands,King George Island ,Potter Peninsula,"Potter Cove, North Potter Peninsula",PC_Pingfo-II_river section,-62.2389,-58.6729,3.46,14C,Laternula sp. bivalve shell,Maximum age constraint on glacial readvance on the outer Potter Peninsula - overlain by till unit,Retreat,Heredia Barion et al. submitted b,41,ETH-71997,7995,20,marine20666,666,76,0.8,R_Date ETH-71997,7703,7509,68.3,7811,7423,95.4,7614,97,7613,R_Date ETH-71997,7797,7561,68.3,7917,7461,95.4,7682,116,7678,
Antarctica,South Shetland Islands,King George Island ,Potter Peninsula,"Potter Cove, North Potter Peninsula",PC_Pingfo-II_river section,-62.2389,-58.6729,3.5,14C,Bone (indeterminate),Maximum age constraint on glacial readvance on the outer Potter Peninsula - overlain by till unit,Retreat,Heredia Barion et al. submitted b,41,Beta - 441404,8100,40,marine20666,666,76,−23.8,R_Date Beta - 441404,7819,7608,68.3,7925,7513,95.4,7716,104,7715,R_Date Beta - 441404,7904,7659,68.3,8015,7534,95.4,7775,122,7774,
Antarctica,South Shetland Islands,King George Island ,Potter Peninsula,"Potter Cove, North Potter Peninsula",PC_Pingfo-II_river section,-62.2389,-58.6729,3.5,14C,Laternula sp. bivalve shell,Maximum age constraint on glacial readvance on the outer Potter Peninsula - overlain by till unit,Retreat,Heredia Barion et al. submitted b,41,ETH-67278,8090,75,marine20666,666,76,−9,R_Date ETH-67278,7825,7584,68.3,7945,7471,95.4,7708,120,7707,R_Date ETH-67278,7910,7639,68.3,8035,7491,95.4,7768,135,7766,
Antarctica,South Shetland Islands,King George Island ,Potter Peninsula,"Potter Cove, North Potter Peninsula",PC_Pingfo-II_river section,-62.2389,-58.6729,4,14C,Laternula sp. bivalve shell,Maximum age constraint on glacial readvance on the outer Potter Peninsula - overlain by till unit,Retreat,Heredia Barion et al. submitted b,41,ETH-72001,7995,65,marine20666,666,76,2.1,R_Date ETH-72001,7727,7497,68.3,7855,7400,95.4,7617,114,7615,R_Date ETH-72001,7815,7555,68.3,7931,7434,95.4,7684,128,7680,
Antarctica,South Shetland Islands,King George Island ,Potter Peninsula,"Potter Cove, North Potter Peninsula",PC_Pingfo-II_river section,-62.2389,-58.6729,4.47,14C,Laternula sp. bivalve shell,Maximum age constraint on glacial readvance on the outer Potter Peninsula - overlain by till unit,Retreat,Heredia Barion et al. submitted b,41,ETH-71995,8195,25,marine20666,666,76,8,R_Date ETH-71995,7912,7708,68.3,7997,7604,95.4,7803,100,7804,R_Date ETH-71995,7980,7730,68.3,8124,7619,95.4,7862,125,7862,
Antarctica,South Shetland Islands,King George Island ,Potter Peninsula,"Potter Cove, North Potter Peninsula",PC__River section,-62.239,-58.6711,2.79,14C,Seaweed trash layer,Maximum age constraint on glacial readvance on the outer Potter Peninsula - overlain by till unit,Retreat,Heredia Barion et al. submitted b,41,SUERC-14413,7831,39,marine20666,666,76,−25.3,R_Date SUERC-14413,7565,7368,68.3,7655,7262,95.4,7460,99,7463,R_Date SUERC-14413,7638,7419,68.3,7771,7294,95.4,7530,115,7528,
Antarctica,South Shetland Islands,King George Island ,Potter Peninsula,"Potter Cove, North Potter Peninsula",PC__River section,-62.239,-58.6711,2.79,14C,Seaweed trash layer,Maximum age constraint on glacial readvance on the outer Potter Peninsula - overlain by till unit,Retreat,Heredia Barion et al. submitted b,41,SUERC-14414,7883,39,marine20666,666,76,−25.6,R_Date SUERC-14414,7606,7415,68.3,7704,7304,95.4,7508,98,7509,R_Date SUERC-14414,7680,7450,68.3,7828,7346,95.4,7578,117,7575,
Antarctica,South Shetland Islands,King George Island ,Potter Peninsula,"Potter Cove, North Potter Peninsula",PC__River section,-62.239,-58.6711,2.79,14C,Shell fragment,Maximum age constraint on glacial readvance on the outer Potter Peninsula - overlain by till unit,Retreat,Heredia Barion et al. submitted b,41,SUERC-14416,7853,38,marine20666,666,76,1.4,R_Date SUERC-14416,7584,7390,68.3,7671,7280,95.4,7481,98,7483,R_Date SUERC-14416,7653,7431,68.3,7792,7312,95.4,7550,116,7548,
Antarctica,South Shetland Islands,King George Island ,Potter Peninsula,"Potter Cove, North Potter Peninsula",PC__River section,-62.239,-58.6711,2.79,14C,Shell fragment,Maximum age constraint on glacial readvance on the outer Potter Peninsula - overlain by till unit,Retreat,Heredia Barion et al. submitted b,41,SUERC-14417,7842,37,marine20666,666,76,0.2,R_Date SUERC-14417,7574,7379,68.3,7662,7272,95.4,7470,98,7473,R_Date SUERC-14417,7645,7425,68.3,7781,7305,95.4,7540,115,7538,
Antarctica,South Shetland Islands,King George Island ,Potter Peninsula,Inland Moraine,PC_Inland Moraine,-62.2473,-58.6466,2.2,14C,Moss in moraine sediments,Maximum readvance age - moss reworked into moraine  ,Advance,Heredia Barion et al. submitted b, ,Beta-441400,1880,30,shcal20,,,−20.9,R_Date Beta-441400,1821,1728,68.3,1866,1702,95.4,1773,42,1776,R_Date Beta-441400,1821,1732,68.3,1865,1705,95.4,1775,39,1777,
Antarctica,South Shetland Islands,King George Island ,Potter Peninsula,Inland Moraine,PC_Inland Moraine,-62.2473,-58.6466,2.2,14C,Moss in moraine sediments,Maximum readvance age - moss reworked into moraine  ,Advance,Heredia Barion et al. submitted b, ,Beta-441401,1850,30,shcal20,,,−22.1,R_Date Beta-441401,1812,1701,68.3,1828,1616,95.4,1737,53,1735,R_Date Beta-441401,1808,1705,68.3,1827,1619,95.4,1743,51,1740,